


{
  "cities": [
    { "name_ka": "თბილისი", "name_en": "Tbilisi", "region": "Tbilisi" },
    { "name_ka": "ბათუმი", "name_en": "Batumi", "region": "Adjara" },
    { "name_ka": "ქუთაისი", "name_en": "Kutaisi", "region": "Imereti" },
    { "name_ka": "რუსთავი", "name_en": "Rustavi", "region": "Kvemo Kartli" },
    { "name_ka": "გორი", "name_en": "Gori", "region": "Shida Kartli" },
    { "name_ka": "ზუგდიდი", "name_en": "Zugdidi", "region": "Samegrelo-Zemo Svaneti" },
    { "name_ka": "ფოთი", "name_en": "Poti", "region": "Samegrelo-Zemo Svaneti" },
    { "name_ka": "ხაშური", "name_en": "Khashuri", "region": "Shida Kartli" },
    { "name_ka": "სამტრედია", "name_en": "Samtredia", "region": "Imereti" },
    { "name_ka": "სენაკი", "name_en": "Senaki", "region": "Samegrelo-Zemo Svaneti" },
    { "name_ka": "ზესტაფონი", "name_en": "Zestafoni", "region": "Imereti" },
    { "name_ka": "მარნეული", "name_en": "Marneuli", "region": "Kvemo Kartli" },
    { "name_ka": "თელავი", "name_en": "Telavi", "region": "Kakheti" },
    { "name_ka": "ახალციხე", "name_en": "Akhaltsikhe", "region": "Samtskhe-Javakheti" },
    { "name_ka": "ქობულეთი", "name_en": "Kobuleti", "region": "Adjara" },
    { "name_ka": "ოზურგეთი", "name_en": "Ozurgeti", "region": "Guria" },
    { "name_ka": "კასპი", "name_en": "Kaspi", "region": "Shida Kartli" },
    { "name_ka": "ჭიათურა", "name_en": "Chiatura", "region": "Imereti" },
    { "name_ka": "წყალტუბო", "name_en": "Tskaltubo", "region": "Imereti" },
    { "name_ka": "საგარეჯო", "name_en": "Sagarejo", "region": "Kakheti" },
    { "name_ka": "გარდაბანი", "name_en": "Gardabani", "region": "Kvemo Kartli" },
    { "name_ka": "ბორჯომი", "name_en": "Borjomi", "region": "Samtskhe-Javakheti" },
    { "name_ka": "ტყიბული", "name_en": "Tkibuli", "region": "Imereti" },
    { "name_ka": "ხონი", "name_en": "Khoni", "region": "Imereti" },
    { "name_ka": "ბოლნისი", "name_en": "Bolnisi", "region": "Kvemo Kartli" },
    { "name_ka": "ახალქალაქი", "name_en": "Akhalkalaki", "region": "Samtskhe-Javakheti" },
    { "name_ka": "გურჯაანი", "name_en": "Gurjaani", "region": "Kakheti" },
    { "name_ka": "მცხეთა", "name_en": "Mtskheta", "region": "Mtskheta-Mtianeti" },
    { "name_ka": "ყვარელი", "name_en": "Kvareli", "region": "Kakheti" },
    { "name_ka": "ახმეტა", "name_en": "Akhmeta", "region": "Kakheti" },
    { "name_ka": "დუშეთი", "name_en": "Dusheti", "region": "Mtskheta-Mtianeti" },
    { "name_ka": "საჩხერე", "name_en": "Sachkhere", "region": "Imereti" },
    { "name_ka": "დედოფლისწყარო", "name_en": "Dedoplistskaro", "region": "Kakheti" },
    { "name_ka": "ლაგოდეხი", "name_en": "Lagodekhi", "region": "Kakheti" },
    { "name_ka": "ნინოწმინდა", "name_en": "Ninotsminda", "region": "Samtskhe-Javakheti" },
    { "name_ka": "აბაშა", "name_en": "Abasha", "region": "Samegrelo-Zemo Svaneti" },
    { "name_ka": "წნორი", "name_en": "Tsnori", "region": "Kakheti" },
    { "name_ka": "თერჯოლა", "name_en": "Terjola", "region": "Imereti" },
    { "name_ka": "მარტვილი", "name_en": "Martvili", "region": "Samegrelo-Zemo Svaneti" },
    { "name_ka": "ჯვარი", "name_en": "Jvari", "region": "Samegrelo-Zemo Svaneti" },
    { "name_ka": "ბაღდათი", "name_en": "Baghdati", "region": "Imereti" },
    { "name_ka": "ვანი", "name_en": "Vani", "region": "Imereti" },
    { "name_ka": "თეთრიწყარო", "name_en": "Tetritskaro", "region": "Kvemo Kartli" },
    { "name_ka": "დმანისი", "name_en": "Dmanisi", "region": "Kvemo Kartli" },
    { "name_ka": "ონი", "name_en": "Oni", "region": "Racha-Lechkhumi" },
    { "name_ka": "წალკა", "name_en": "Tsalka", "region": "Kvemo Kartli" },
    { "name_ka": "ამბროლაური", "name_en": "Ambrolauri", "region": "Racha-Lechkhumi" },
    { "name_ka": "სიღნაღი", "name_en": "Sighnaghi", "region": "Kakheti" },
    { "name_ka": "ცაგერი", "name_en": "Tsageri", "region": "Racha-Lechkhumi" },
    { "name_ka": "სოხუმი", "name_en": "Sokhumi", "region": "Abkhazia" },
    { "name_ka": "ცხინვალი", "name_en": "Tskhinvali", "region": "Shida Kartli" }
  ]
}
